SL-3 R/B                
1 19046U 88032B   26083.93970257  .00004484  00000+0  20923-3 0  9990
2 19046  97.5214  67.1407 0025898 176.6888 183.4524 15.20073018 54420
SL-16 R/B               
1 19120U 88039B   26083.91837817  .00000031  00000+0  37513-4 0  9990
2 19120  71.0159  36.3445 0023496 312.4484  47.4654 14.19617934960542
COSMOS 1953             
1 19210U 88050A   26083.61583344  .00006186  00000+0  21966-3 0  9994
2 19210  82.5081 143.2338 0012512  75.9278 284.3352 15.28758655 40061
SL-8 R/B                
1 19257U 88053B   26083.94285534  .00000315  00000+0  11043-3 0  9997
2 19257  74.0451  84.3472 0021510 261.6255 112.6291 14.38925984978796
COSMOS 1975             
1 19573U 88093A   26083.78517432  .00006355  00000+0  22903-3 0  9996
2 19573  82.5168 102.5263 0013257 114.7744 245.4876 15.28268069 21716
SL-14 R/B               
1 19574U 88093B   26083.95269998  .00000571  00000+0  62879-4 0  9998
2 19574  82.5334  27.7174 0020455 352.2312  77.6785 14.85674132  3289
SL-16 R/B               
1 19650U 88102B   26083.38505451 -.00000238  00000+0 -96129-4 0  9995
2 19650  70.9980 120.5774 0014932 339.1000  20.9511 14.16154852928977
INTERCOSMOS 24          
1 20261U 89080A   26083.97391876  .00000535  00000+0  15857-3 0  9996
2 20261  82.6011  94.4481 1186775 257.3101  89.3035 12.59577863668725
SL-14 R/B               
1 20262U 89080C   26083.91947017  .00000425  00000+0  12011-3 0  9992
2 20262  82.5963 163.4136 1230872 149.9548 217.8395 12.50508621662058
DELTA 1 R/B             
1 20323U 89089B   26083.79545110  .00000306  00000+0  84158-4 0  9993
2 20323  97.0694 288.8302 0070652  75.2061 285.6951 14.50675013897922
ARIANE 40 R/B           
1 20443U 90005H   26083.61508914  .00000263  00000+0  96956-4 0  9999
2 20443  98.3052 143.8296 0010779 154.2700 205.9027 14.39879899894955
DELTA 2 R/B(1)          
1 20453U 90008B   26082.29022841  .00073697  00000+0  82029-3 0  9992
2 20453  35.6034  85.4758 0079944  25.1791 335.2813 15.57716328928258
