CCSDS_OMM_VERS = 2.0
CREATION_DATE  = 
ORIGINATOR     = 

OBJECT_NAME    = SL-3 R/B
OBJECT_ID      = 1988-032B
CENTER_NAME    = EARTH
REF_FRAME      = TEME
TIME_SYSTEM    = UTC
MEAN_ELEMENT_THEORY = SGP/SGP4

EPOCH          = 2026-03-24T22:33:10.302048
MEAN_MOTION    = 15.20073018
ECCENTRICITY   = .00258986
INCLINATION    = 97.5214
RA_OF_ASC_NODE = 67.1407
ARG_OF_PERICENTER = 176.6888
MEAN_ANOMALY   = 183.4524

EPHEMERIS_TYPE = 0
CLASSIFICATION_TYPE = U
NORAD_CAT_ID   = 19046
ELEMENT_SET_NO = 999
REV_AT_EPOCH   = 5442
BSTAR          = .20922679E-3
MEAN_MOTION_DOT = .4484E-4
MEAN_MOTION_DDOT = 0

CCSDS_OMM_VERS = 2.0
CREATION_DATE  = 
ORIGINATOR     = 

OBJECT_NAME    = SL-16 R/B
OBJECT_ID      = 1988-039B
CENTER_NAME    = EARTH
REF_FRAME      = TEME
TIME_SYSTEM    = UTC
MEAN_ELEMENT_THEORY = SGP/SGP4

EPOCH          = 2026-03-24T22:02:27.873888
MEAN_MOTION    = 14.19617934
ECCENTRICITY   = .00234966
INCLINATION    = 71.0159
RA_OF_ASC_NODE = 36.3445
ARG_OF_PERICENTER = 312.4484
MEAN_ANOMALY   = 47.4654

EPHEMERIS_TYPE = 0
CLASSIFICATION_TYPE = U
NORAD_CAT_ID   = 19120
ELEMENT_SET_NO = 999
REV_AT_EPOCH   = 96054
BSTAR          = .37512524E-4
MEAN_MOTION_DOT = .31E-6
MEAN_MOTION_DDOT = 0

CCSDS_OMM_VERS = 2.0
CREATION_DATE  = 
ORIGINATOR     = 

OBJECT_NAME    = COSMOS 1953
OBJECT_ID      = 1988-050A
CENTER_NAME    = EARTH
REF_FRAME      = TEME
TIME_SYSTEM    = UTC
MEAN_ELEMENT_THEORY = SGP/SGP4

EPOCH          = 2026-03-24T14:46:48.009216
MEAN_MOTION    = 15.28758655
ECCENTRICITY   = .00125127
INCLINATION    = 82.5081
RA_OF_ASC_NODE = 143.2338
ARG_OF_PERICENTER = 75.9278
MEAN_ANOMALY   = 284.3352

EPHEMERIS_TYPE = 0
CLASSIFICATION_TYPE = U
NORAD_CAT_ID   = 19210
ELEMENT_SET_NO = 999
REV_AT_EPOCH   = 4006
BSTAR          = .21966412E-3
MEAN_MOTION_DOT = .6186E-4
MEAN_MOTION_DDOT = 0

CCSDS_OMM_VERS = 2.0
CREATION_DATE  = 
ORIGINATOR     = 

OBJECT_NAME    = SL-8 R/B
OBJECT_ID      = 1988-053B
CENTER_NAME    = EARTH
REF_FRAME      = TEME
TIME_SYSTEM    = UTC
MEAN_ELEMENT_THEORY = SGP/SGP4

EPOCH          = 2026-03-24T22:37:42.701376
MEAN_MOTION    = 14.38925984
ECCENTRICITY   = .002151
INCLINATION    = 74.0451
RA_OF_ASC_NODE = 84.3472
ARG_OF_PERICENTER = 261.6255
MEAN_ANOMALY   = 112.6291

EPHEMERIS_TYPE = 0
CLASSIFICATION_TYPE = U
NORAD_CAT_ID   = 19257
ELEMENT_SET_NO = 999
REV_AT_EPOCH   = 97879
BSTAR          = .11042708E-3
MEAN_MOTION_DOT = .315E-5
MEAN_MOTION_DDOT = 0

CCSDS_OMM_VERS = 2.0
CREATION_DATE  = 
ORIGINATOR     = 

OBJECT_NAME    = COSMOS 1975
OBJECT_ID      = 1988-093A
CENTER_NAME    = EARTH
REF_FRAME      = TEME
TIME_SYSTEM    = UTC
MEAN_ELEMENT_THEORY = SGP/SGP4

EPOCH          = 2026-03-24T18:50:39.061248
MEAN_MOTION    = 15.28268069
ECCENTRICITY   = .00132578
INCLINATION    = 82.5168
RA_OF_ASC_NODE = 102.5263
ARG_OF_PERICENTER = 114.7744
MEAN_ANOMALY   = 245.4876

EPHEMERIS_TYPE = 0
CLASSIFICATION_TYPE = U
NORAD_CAT_ID   = 19573
ELEMENT_SET_NO = 999
REV_AT_EPOCH   = 2171
BSTAR          = .22903387E-3
MEAN_MOTION_DOT = .6355E-4
MEAN_MOTION_DDOT = 0

CCSDS_OMM_VERS = 2.0
CREATION_DATE  = 
ORIGINATOR     = 

OBJECT_NAME    = SL-14 R/B
OBJECT_ID      = 1988-093B
CENTER_NAME    = EARTH
REF_FRAME      = TEME
TIME_SYSTEM    = UTC
MEAN_ELEMENT_THEORY = SGP/SGP4

EPOCH          = 2026-03-24T22:51:53.278272
MEAN_MOTION    = 14.85674132
ECCENTRICITY   = .00204552
INCLINATION    = 82.5334
RA_OF_ASC_NODE = 27.7174
ARG_OF_PERICENTER = 352.2312
MEAN_ANOMALY   = 77.6785

EPHEMERIS_TYPE = 0
CLASSIFICATION_TYPE = U
NORAD_CAT_ID   = 19574
ELEMENT_SET_NO = 999
REV_AT_EPOCH   = 328
BSTAR          = .62878513E-4
MEAN_MOTION_DOT = .571E-5
MEAN_MOTION_DDOT = 0

CCSDS_OMM_VERS = 2.0
CREATION_DATE  = 
ORIGINATOR     = 

OBJECT_NAME    = SL-16 R/B
OBJECT_ID      = 1988-102B
CENTER_NAME    = EARTH
REF_FRAME      = TEME
TIME_SYSTEM    = UTC
MEAN_ELEMENT_THEORY = SGP/SGP4

EPOCH          = 2026-03-24T09:14:28.709664
MEAN_MOTION    = 14.16154852
ECCENTRICITY   = .00149328
INCLINATION    = 70.9980
RA_OF_ASC_NODE = 120.5774
ARG_OF_PERICENTER = 339.1000
MEAN_ANOMALY   = 20.9511

EPHEMERIS_TYPE = 0
CLASSIFICATION_TYPE = U
NORAD_CAT_ID   = 19650
ELEMENT_SET_NO = 999
REV_AT_EPOCH   = 92897
BSTAR          = -.96128982E-4
MEAN_MOTION_DOT = -.238E-5
MEAN_MOTION_DDOT = 0

CCSDS_OMM_VERS = 2.0
CREATION_DATE  = 
ORIGINATOR     = 

OBJECT_NAME    = INTERCOSMOS 24
OBJECT_ID      = 1989-080A
CENTER_NAME    = EARTH
REF_FRAME      = TEME
TIME_SYSTEM    = UTC
MEAN_ELEMENT_THEORY = SGP/SGP4

EPOCH          = 2026-03-24T23:22:26.580864
MEAN_MOTION    = 12.59577863
ECCENTRICITY   = .11867753
INCLINATION    = 82.6011
RA_OF_ASC_NODE = 94.4481
ARG_OF_PERICENTER = 257.3101
MEAN_ANOMALY   = 89.3035

EPHEMERIS_TYPE = 0
CLASSIFICATION_TYPE = U
NORAD_CAT_ID   = 20261
ELEMENT_SET_NO = 999
REV_AT_EPOCH   = 66872
BSTAR          = .15857228E-3
MEAN_MOTION_DOT = .535E-5
MEAN_MOTION_DDOT = 0

CCSDS_OMM_VERS = 2.0
CREATION_DATE  = 
ORIGINATOR     = 

OBJECT_NAME    = SL-14 R/B
OBJECT_ID      = 1989-080C
CENTER_NAME    = EARTH
REF_FRAME      = TEME
TIME_SYSTEM    = UTC
MEAN_ELEMENT_THEORY = SGP/SGP4

EPOCH          = 2026-03-24T22:04:02.222688
MEAN_MOTION    = 12.50508621
ECCENTRICITY   = .12308728
INCLINATION    = 82.5963
RA_OF_ASC_NODE = 163.4136
ARG_OF_PERICENTER = 149.9548
MEAN_ANOMALY   = 217.8395

EPHEMERIS_TYPE = 0
CLASSIFICATION_TYPE = U
NORAD_CAT_ID   = 20262
ELEMENT_SET_NO = 999
REV_AT_EPOCH   = 66205
BSTAR          = .12010765E-3
MEAN_MOTION_DOT = .425E-5
MEAN_MOTION_DDOT = 0

CCSDS_OMM_VERS = 2.0
CREATION_DATE  = 
ORIGINATOR     = 

OBJECT_NAME    = DELTA 1 R/B
OBJECT_ID      = 1989-089B
CENTER_NAME    = EARTH
REF_FRAME      = TEME
TIME_SYSTEM    = UTC
MEAN_ELEMENT_THEORY = SGP/SGP4

EPOCH          = 2026-03-24T19:05:26.975040
MEAN_MOTION    = 14.50675013
ECCENTRICITY   = .00706528
INCLINATION    = 97.0694
RA_OF_ASC_NODE = 288.8302
ARG_OF_PERICENTER = 75.2061
MEAN_ANOMALY   = 285.6951

EPHEMERIS_TYPE = 0
CLASSIFICATION_TYPE = U
NORAD_CAT_ID   = 20323
ELEMENT_SET_NO = 999
REV_AT_EPOCH   = 89792
BSTAR          = .84157825E-4
MEAN_MOTION_DOT = .306E-5
MEAN_MOTION_DDOT = 0

CCSDS_OMM_VERS = 2.0
CREATION_DATE  = 
ORIGINATOR     = 

OBJECT_NAME    = ARIANE 40 R/B
OBJECT_ID      = 1990-005H
CENTER_NAME    = EARTH
REF_FRAME      = TEME
TIME_SYSTEM    = UTC
MEAN_ELEMENT_THEORY = SGP/SGP4

EPOCH          = 2026-03-24T14:45:43.701696
MEAN_MOTION    = 14.39879899
ECCENTRICITY   = .00107795
INCLINATION    = 98.3052
RA_OF_ASC_NODE = 143.8296
ARG_OF_PERICENTER = 154.2700
MEAN_ANOMALY   = 205.9027

EPHEMERIS_TYPE = 0
CLASSIFICATION_TYPE = U
NORAD_CAT_ID   = 20443
ELEMENT_SET_NO = 999
REV_AT_EPOCH   = 89495
BSTAR          = .96955588E-4
MEAN_MOTION_DOT = .263E-5
MEAN_MOTION_DDOT = 0

CCSDS_OMM_VERS = 2.0
CREATION_DATE  = 
ORIGINATOR     = 

OBJECT_NAME    = DELTA 2 R/B(1)
OBJECT_ID      = 1990-008B
CENTER_NAME    = EARTH
REF_FRAME      = TEME
TIME_SYSTEM    = UTC
MEAN_ELEMENT_THEORY = SGP/SGP4

EPOCH          = 2026-03-23T06:57:55.734624
MEAN_MOTION    = 15.57716328
ECCENTRICITY   = .00799445
INCLINATION    = 35.6034
RA_OF_ASC_NODE = 85.4758
ARG_OF_PERICENTER = 25.1791
MEAN_ANOMALY   = 335.2813

EPHEMERIS_TYPE = 0
CLASSIFICATION_TYPE = U
NORAD_CAT_ID   = 20453
ELEMENT_SET_NO = 999
REV_AT_EPOCH   = 92825
BSTAR          = .82028965E-3
MEAN_MOTION_DOT = .73697E-3
MEAN_MOTION_DDOT = 0

